[
    {
        "_id": "634336fe70a5204f0004e868",
        "Entry Number": 1,
        "Address 1": "919 Richards",
        "Address 2": "",
        "City": "Antioch",
        "State": "TN",
        "Zip": "37013-3238"
    },
    {
        "_id": "634336fe70a5204f0004e869",
        "Entry Number": 2,
        "Address 1": "2901 Spanntown",
        "Address 2": "",
        "City": "Arrington",
        "State": "TN",
        "Zip": "37014-9137"
    },
    {
        "_id": "634336fe70a5204f0004e86a",
        "Entry Number": 3,
        "Address 1": "925 North Point Pkwy",
        "Address 2": "Ste 350",
        "City": "Alpharetta",
        "State": "GA",
        "Zip": "30005-5214"
    },
    {
        "_id": "634336fe70a5204f0004e86b",
        "Entry Number": 4,
        "Address 1": "201 Henry ",
        "Address 2": "",
        "City": "Branford",
        "State": "FL",
        "Zip": "32008-3019"
    },
    {
        "_id": "634336fe70a5204f0004e86c",
        "Entry Number": 5,
        "Address 1": "900 Windsock",
        "Address 2": "",
        "City": "Bryceville",
        "State": "FL",
        "Zip": "32009-2302"
    },
    {
        "_id": "634336fe70a5204f0004e86d",
        "Entry Number": 6,
        "Address 1": "2400 New Macland Rd",
        "Address 2": "",
        "City": "Powder Springs ",
        "State": "GA",
        "Zip": "30127-3459"
    },
    {
        "_id": "634336fe70a5204f0004e86e",
        "Entry Number": 7,
        "Address 1": "3 Glenlake Pkwy NE",
        "Address 2": "",
        "City": "Atlanta ",
        "State": "GA",
        "Zip": "30328-5672"
    },
    {
        "_id": "634336fe70a5204f0004e86f",
        "Entry Number": 8,
        "Address 1": "2870 Clay Rd",
        "Address 2": "",
        "City": "Austell",
        "State": "GA",
        "Zip": "30106-3455"
    },
    {
        "_id": "634336fe70a5204f0004e870",
        "Entry Number": 9,
        "Address 1": "600 W College Ave",
        "Address 2": "",
        "City": "Tallahassee",
        "State": "FL",
        "Zip": "32306-4564"
    },
    {
        "_id": "634336fe70a5204f0004e871",
        "Entry Number": 10,
        "Address 1": "650 Rundle Ave ",
        "Address 2": "",
        "City": "Nashville",
        "State": "TN",
        "Zip": "37210-3468"
    },
    {
        "_id": "634336fe70a5204f0004e872",
        "Entry Number": 11,
        "Address 1": "581 Braidwood Dr. NW",
        "Address 2": "",
        "City": "Acworth ",
        "State": "GA",
        "Zip": "30101-0121"
    },
    {
        "_id": "634336fe70a5204f0004e873",
        "Entry Number": 12,
        "Address 1": "120 Catesby Rd. NW",
        "Address 2": "",
        "City": "Powder Springs ",
        "State": "GA",
        "Zip": "30127-0081"
    },
    {
        "_id": "634336fe70a5204f0004e874",
        "Entry Number": 13,
        "Address 1": "104 Caldwell Hall NE",
        "Address 2": "",
        "City": "Athens",
        "State": "GA",
        "Zip": "30602-1633"
    },
    {
        "_id": "634336fe70a5204f0004e875",
        "Entry Number": 14,
        "Address 1": "210 South Jackson Street NE",
        "Address 2": "",
        "City": "Athens",
        "State": "GA",
        "Zip": "30602-1633"
    },
    {
        "_id": "634336fe70a5204f0004e876",
        "Entry Number": 15,
        "Address 1": "4500 Due W Rd NW",
        "Address 2": "",
        "City": "Kennesaw",
        "State": "GA",
        "Zip": "30152-3301"
    },
    {
        "_id": "634336fe70a5204f0004e877",
        "Entry Number": 16,
        "Address 1": "5490 Johns View St.",
        "Address 2": "",
        "City": "Johns Creek ",
        "State": "GA ",
        "Zip": "30005-6458"
    },
    {
        "_id": "634336fe70a5204f0004e878",
        "Entry Number": 17,
        "Address 1": "5390 Roswell Rd.",
        "Address 2": "",
        "City": "Atlanta ",
        "State": "GA ",
        "Zip": "30328-5276"
    },
    {
        "_id": "634336fe70a5204f0004e879",
        "Entry Number": 18,
        "Address 1": "1830 Sandy Plains Rd.",
        "Address 2": "",
        "City": "Marietta ",
        "State": "GA ",
        "Zip": "30066-2756"
    },
    {
        "_id": "634336fe70a5204f0004e87a",
        "Entry Number": 19,
        "Address 1": "1280 Peachtree St. NE",
        "Address 2": "",
        "City": "Atlanta ",
        "State": "GA ",
        "Zip": "30309-9673"
    },
    {
        "_id": "634336fe70a5204f0004e87b",
        "Entry Number": 20,
        "Address 1": "925 Shiloh Rd. NW",
        "Address 2": "",
        "City": "Kennesaw",
        "State": "GA ",
        "Zip": "30144-8765"
    },
    {
        "_id": "634336fe70a5204f0004e87c",
        "Entry Number": 21,
        "Address 1": "6140 Olde Atlanta Pkwy",
        "Address 2": "",
        "City": "Suwanee",
        "State": "GA",
        "Zip": "30024-3448"
    },
    {
        "_id": "634336fe70a5204f0004e87d",
        "Entry Number": 22,
        "Address 1": "910 Deerfield Crossing Dr",
        "Address 2": "Apt 7111",
        "City": "Alpharetta",
        "State": "GA",
        "Zip": "30004-1801"
    },
    {
        "_id": "634336fe70a5204f0004e87e",
        "Entry Number": 23,
        "Address 1": "3257 Saint Marks Rd",
        "Address 2": "",
        "City": "Hogansville",
        "State": "GA",
        "Zip": "30230-2157"
    },
    {
        "_id": "634336fe70a5204f0004e87f",
        "Entry Number": 24,
        "Address 1": "4055 Saint Michelle Ln",
        "Address 2": "",
        "City": "Alpharetta",
        "State": "GA",
        "Zip": "30004-7175"
    },
    {
        "_id": "634336fe70a5204f0004e880",
        "Entry Number": 25,
        "Address 1": "48 Chestatee View Pl",
        "Address 2": "",
        "City": "Dawsonville",
        "State": "GA",
        "Zip": "30534-6406"
    },
    {
        "_id": "634336fe70a5204f0004e881",
        "Entry Number": 26,
        "Address 1": "1775 Tobey Rd",
        "Address 2": "",
        "City": "Brookhaven",
        "State": "GA",
        "Zip": "30341-4866"
    },
    {
        "_id": "634336fe70a5204f0004e882",
        "Entry Number": 27,
        "Address 1": "12719 SW 226th St",
        "Address 2": "",
        "City": "Miami",
        "State": "FL",
        "Zip": "33170-7563"
    },
    {
        "_id": "634336fe70a5204f0004e883",
        "Entry Number": 28,
        "Address 1": "156 N Sugar Creek Rd",
        "Address 2": "",
        "City": "Buckhead",
        "State": "GA",
        "Zip": "30625-2957"
    },
    {
        "_id": "634336fe70a5204f0004e884",
        "Entry Number": 29,
        "Address 1": "1007 Tuskegee Dr",
        "Address 2": "",
        "City": "Oak Ridge",
        "State": "TN",
        "Zip": "37830-1649"
    },
    {
        "_id": "634336fe70a5204f0004e885",
        "Entry Number": 30,
        "Address 1": "811 Ashley Forest Dr",
        "Address 2": "",
        "City": "Chattanooga",
        "State": "TN",
        "Zip": "37343-8936"
    },
    {
        "_id": "634336fe70a5204f0004e886",
        "Entry Number": 31,
        "Address 1": "262 Oakbridge Dr",
        "Address 2": "",
        "City": "Douglasville",
        "State": "GA",
        "Zip": "30134-6159"
    },
    {
        "_id": "634336fe70a5204f0004e887",
        "Entry Number": 32,
        "Address 1": "135 Barrington Dr E",
        "Address 2": "",
        "City": "Roswell",
        "State": "GA",
        "Zip": "30076-2314"
    },
    {
        "_id": "634336fe70a5204f0004e888",
        "Entry Number": 33,
        "Address 1": "3230 Chapman Rd",
        "Address 2": "",
        "City": "Zebulon",
        "State": "GA",
        "Zip": "30295-3622"
    },
    {
        "_id": "634336fe70a5204f0004e889",
        "Entry Number": 34,
        "Address 1": "3206 Arden Rd NW",
        "Address 2": "",
        "City": "Atlanta ",
        "State": "GA",
        "Zip": "30305-1919"
    },
    {
        "_id": "634336fe70a5204f0004e88a",
        "Entry Number": 35,
        "Address 1": "109 Talbot Rd",
        "Address 2": "",
        "City": "Savannah",
        "State": "GA",
        "Zip": "31410-4015"
    },
    {
        "_id": "634336fe70a5204f0004e88b",
        "Entry Number": 36,
        "Address 1": "1 Coca Cola Plz NW",
        "Address 2": "",
        "City": "Atlanta",
        "State": "GA",
        "Zip": "30313-6916"
    },
    {
        "_id": "634336fe70a5204f0004e88c",
        "Entry Number": 37,
        "Address 1": "133 Peachtree St",
        "Address 2": "",
        "City": "Atlanta",
        "State": "GA",
        "Zip": "30303-3246"
    },
    {
        "_id": "634336fe70a5204f0004e88d",
        "Entry Number": 38,
        "Address 1": "1255 Lakes Pkwy",
        "Address 2": "Ste 300",
        "City": "Lawrenceville",
        "State": "GA",
        "Zip": "30043-1846"
    },
    {
        "_id": "634336fe70a5204f0004e88e",
        "Entry Number": 39,
        "Address 1": "1000 Chastain Rd NW",
        "Address 2": "",
        "City": "Kennesaw",
        "State": "GA",
        "Zip": "30144-4867"
    },
    {
        "_id": "634336fe70a5204f0004e88f",
        "Entry Number": 40,
        "Address 1": "800 Battery Ave SE",
        "Address 2": "Apt 500",
        "City": "Atlanta",
        "State": "GA",
        "Zip": "30339-3575"
    },
    {
        "_id": "634336fe70a5204f0004e890",
        "Entry Number": 41,
        "Address 1": "20 Duck Thurmond Rd",
        "Address 2": "",
        "City": "Dawsonville",
        "State": "GA",
        "Zip": "30534-0010"
    },
    {
        "_id": "634336fe70a5204f0004e891",
        "Entry Number": 42,
        "Address 1": "903 Parkway",
        "Address 2": "Ste 103",
        "City": "Gatlinburg",
        "State": "TN",
        "Zip": "37738-0361"
    },
    {
        "_id": "634336fe70a5204f0004e892",
        "Entry Number": 43,
        "Address 1": "14981 Tapoco Rd",
        "Address 2": "",
        "City": "Robbinsville",
        "State": "NC",
        "Zip": "28771-0001"
    },
    {
        "_id": "634336fe70a5204f0004e893",
        "Entry Number": 44,
        "Address 1": "6040 Barber Motorsports Pkwy",
        "Address 2": "",
        "City": "Leeds",
        "State": "AL",
        "Zip": "35094-0008"
    },
    {
        "_id": "634336fe70a5204f0004e894",
        "Entry Number": 45,
        "Address 1": "One Porsche Dr",
        "Address 2": "",
        "City": "Atlanta",
        "State": "GA",
        "Zip": "30354-1238"
    },
    {
        "_id": "634336fe70a5204f0004e895",
        "Entry Number": 46,
        "Address 1": "1542 Ralph David Abernathy Blvd SW",
        "Address 2": "",
        "City": "Atlanta",
        "State": "GA",
        "Zip": "30310-8621"
    },
    {
        "_id": "634336fe70a5204f0004e896",
        "Entry Number": 47,
        "Address 1": "3240 S Cobb Dr SE",
        "Address 2": "",
        "City": "Smyrna",
        "State": "GA",
        "Zip": "30080-3957"
    },
    {
        "_id": "634336fe70a5204f0004e897",
        "Entry Number": 48,
        "Address 1": "2195 Market Pl Blvd",
        "Address 2": "",
        "City": "Cumming",
        "State": "GA",
        "Zip": "30041-5967"
    },
    {
        "_id": "634336fe70a5204f0004e898",
        "Entry Number": 49,
        "Address 1": "2604 Washington Rd",
        "Address 2": "",
        "City": "Augusta",
        "State": "GA",
        "Zip": "30904-4739"
    },
    {
        "_id": "634336fe70a5204f0004e899",
        "Entry Number": 50,
        "Address 1": "1191 Oglethorpe St",
        "Address 2": "",
        "City": "Macon",
        "State": "GA",
        "Zip": "31201-4826"
    },
    {
        "_id": "634336fe70a5204f0004e89a",
        "Entry Number": 51,
        "Address 1": "1665 WestTurtle Circle",
        "Address 2": "",
        "City": "Kennesaw",
        "State": "GA",
        "Zip": "30152-4091"
    },
    {
        "_id": "634336fe70a5204f0004e89b",
        "Entry Number": 52,
        "Address 1": "4802 Eastriver Way",
        "Address 2": "",
        "City": "Kennesaw",
        "State": "GA",
        "Zip": "30152-4091"
    },
    {
        "_id": "634336fe70a5204f0004e89c",
        "Entry Number": 53,
        "Address 1": "9905 Kangaroo Drive",
        "Address 2": "",
        "City": "Marietta",
        "State": "GA",
        "Zip": "30008-2101"
    },
    {
        "_id": "634336fe70a5204f0004e89d",
        "Entry Number": 54,
        "Address 1": "659 Stoddard Cove",
        "Address 2": "",
        "City": "Marietta",
        "State": "GA",
        "Zip": "30008-2100"
    },
    {
        "_id": "634336fe70a5204f0004e89e",
        "Entry Number": 55,
        "Address 1": "7333 Wrongturn Road",
        "Address 2": "",
        "City": "Acworth",
        "State": "Ga",
        "Zip": "30101-0201"
    },
    {
        "_id": "634336fe70a5204f0004e89f",
        "Entry Number": 56,
        "Address 1": "1219 Trees Of Kennesaw Pkwy NW",
        "Address 2": "Apt 1218",
        "City": "Kennesaw",
        "State": "GA",
        "Zip": "30152-3568"
    },
    {
        "_id": "634336fe70a5204f0004e8a0",
        "Entry Number": 57,
        "Address 1": "391 W Paces Ferry Rd NW",
        "Address 2": "",
        "City": "Atlanta",
        "State": "GA",
        "Zip": "30305-1001"
    },
    {
        "_id": "634336fe70a5204f0004e8a1",
        "Entry Number": 58,
        "Address 1": "1000 Cobb Pkwy N",
        "Address 2": "",
        "City": "Marietta",
        "State": "GA",
        "Zip": "30062-7865"
    },
    {
        "_id": "634336fe70a5204f0004e8a2",
        "Entry Number": 59,
        "Address 1": "900 Kennesaw Mountain Dr",
        "Address 2": "",
        "City": "Kennesaw",
        "State": "GA",
        "Zip": "30152-3589"
    },
    {
        "_id": "634336fe70a5204f0004e8a3",
        "Entry Number": 60,
        "Address 1": "740 Ernest W Barrett Pkwy NW",
        "Address 2": "Apt 450",
        "City": "Kennesaw",
        "State": "GA",
        "Zip": "30144-5824"
    },
    {
        "_id": "634336fe70a5204f0004e8a4",
        "Entry Number": 61,
        "Address 1": "83 Cassidy Trail ",
        "Address 2": "",
        "City": "Douglasville",
        "State": "GA",
        "Zip": "30134-5315"
    },
    {
        "_id": "634336fe70a5204f0004e8a5",
        "Entry Number": 62,
        "Address 1": "112 Cassidy Trail ",
        "Address 2": "",
        "City": "Douglasville",
        "State": "GA",
        "Zip": "30134-5315"
    },
    {
        "_id": "634336fe70a5204f0004e8a6",
        "Entry Number": 63,
        "Address 1": "1431 Graymont Dr SW",
        "Address 2": "",
        "City": "Atlanta ",
        "State": "GA",
        "Zip": "30310-3923"
    },
    {
        "_id": "634336fe70a5204f0004e8a7",
        "Entry Number": 64,
        "Address 1": "1427 Graymont Dr SW",
        "Address 2": "",
        "City": "Atlanta ",
        "State": "GA",
        "Zip": "30310-3923"
    },
    {
        "_id": "634336fe70a5204f0004e8a8",
        "Entry Number": 65,
        "Address 1": "29 Pinson St",
        "Address 2": "",
        "City": "Newnan",
        "State": "GA",
        "Zip": "30263-2429"
    },
    {
        "_id": "634336fe70a5204f0004e8a9",
        "Entry Number": 66,
        "Address 1": "201  GLEN COVE",
        "Address 2": "",
        "City": "AVONDALE ESTATES",
        "State": "GA",
        "Zip": "30002-1160"
    },
    {
        "_id": "634336fe70a5204f0004e8aa",
        "Entry Number": 67,
        "Address 1": "2901  JORDAN",
        "Address 2": "",
        "City": "ALPHARETTA",
        "State": "GA",
        "Zip": "30004-8534"
    },
    {
        "_id": "634336fe70a5204f0004e8ab",
        "Entry Number": 68,
        "Address 1": "5012 N SOMERSET",
        "Address 2": "",
        "City": "ALPHARETTA",
        "State": "GA",
        "Zip": "30004-3803"
    },
    {
        "_id": "634336fe70a5204f0004e8ac",
        "Entry Number": 69,
        "Address 1": "820  MCFARLAND",
        "Address 2": "",
        "City": "ALPHARETTA",
        "State": "GA",
        "Zip": "30004-3364"
    },
    {
        "_id": "634336fe70a5204f0004e8ad",
        "Entry Number": 70,
        "Address 1": "260  NORTHERN",
        "Address 2": "",
        "City": "AVONDALE ESTATES",
        "State": "GA",
        "Zip": "30002-1757"
    },
    {
        "_id": "634336fe70a5204f0004e8ae",
        "Entry Number": 71,
        "Address 1": "250 Cobb Pky N",
        "Address 2": "",
        "City": "Marietta",
        "State": "GA",
        "Zip": "30062-4984"
    },
    {
        "_id": "634336fe70a5204f0004e8af",
        "Entry Number": 72,
        "Address 1": "5300 Winder Hwy",
        "Address 2": "",
        "City": "Braselton",
        "State": "GA",
        "Zip": "30517-8015"
    },
    {
        "_id": "634336fe70a5204f0004e8b0",
        "Entry Number": 73,
        "Address 1": "1500 Tara Pl",
        "Address 2": "",
        "City": "Hampton",
        "State": "GA",
        "Zip": "30228-6743"
    },
    {
        "_id": "634336fe70a5204f0004e8b1",
        "Entry Number": 74,
        "Address 1": "601 McDonough Blvd SE",
        "Address 2": "",
        "City": "Atlanta",
        "State": "GA",
        "Zip": "30315-8624"
    },
    {
        "_id": "634336fe70a5204f0004e8b2",
        "Entry Number": 75,
        "Address 1": "113 Midway Dr",
        "Address 2": "",
        "City": "Seabring",
        "State": "FL",
        "Zip": "33870-0743"
    },
    {
        "_id": "634336fe70a5204f0004e8b3",
        "Entry Number": 76,
        "Address 1": "221B Baker St. ",
        "Address 2": "",
        "City": "Alpharetta",
        "State": "GA",
        "Zip": "30009-0261"
    },
    {
        "_id": "634336fe70a5204f0004e8b4",
        "Entry Number": 77,
        "Address 1": "1313 Mockingbird Ln. W",
        "Address 2": "Apt 593",
        "City": "Atlanta",
        "State": "GA",
        "Zip": "30309-1001"
    },
    {
        "_id": "634336fe70a5204f0004e8b5",
        "Entry Number": 78,
        "Address 1": "62 Wallaby St. SE",
        "Address 2": "",
        "City": "Johns Creek",
        "State": "GA",
        "Zip": "30022-1037"
    },
    {
        "_id": "634336fe70a5204f0004e8b6",
        "Entry Number": 79,
        "Address 1": "124 Conch St.",
        "Address 2": "Apt 1248",
        "City": "Peachtree City",
        "State": "GA",
        "Zip": "30269-0348"
    },
    {
        "_id": "634336fe70a5204f0004e8b7",
        "Entry Number": 80,
        "Address 1": "129 Peachtree Dr. N",
        "Address 2": "",
        "City": "Roswell",
        "State": "GA",
        "Zip": "30075-1069"
    },
    {
        "_id": "634336fe70a5204f0004e8b8",
        "Entry Number": 81,
        "Address 1": "300 Wyatt rd",
        "Address 2": "",
        "City": "Cedartown ",
        "State": "GA",
        "Zip": "30125-1234"
    },
    {
        "_id": "634336fe70a5204f0004e8b9",
        "Entry Number": 82,
        "Address 1": "335 Dunn rd",
        "Address 2": "",
        "City": "Silvercreek ",
        "State": "GA",
        "Zip": "30172-4256"
    },
    {
        "_id": "634336fe70a5204f0004e8ba",
        "Entry Number": 83,
        "Address 1": "3085 Old Rokcmart Rd",
        "Address 2": "",
        "City": "Silvercreek ",
        "State": "GA",
        "Zip": "30172-1269"
    },
    {
        "_id": "634336fe70a5204f0004e8bb",
        "Entry Number": 84,
        "Address 1": "23 Pirkle Cir",
        "Address 2": "",
        "City": "Norcross",
        "State": "GA",
        "Zip": "30093-4387"
    },
    {
        "_id": "634336fe70a5204f0004e8bc",
        "Entry Number": 85,
        "Address 1": "69 Dowdy Dr",
        "Address 2": "",
        "City": "Cedartown",
        "State": "GA",
        "Zip": "30125-6679"
    },
    {
        "_id": "634336fe70a5204f0004e8bd",
        "Entry Number": 86,
        "Address 1": "2648 Laurel Ln NW ",
        "Address 2": "",
        "City": "Kennesaw ",
        "State": "GA",
        "Zip": "30152-6041"
    },
    {
        "_id": "634336fe70a5204f0004e8be",
        "Entry Number": 87,
        "Address 1": "12484 Alabama Hwy ",
        "Address 2": "",
        "City": "Ringgold ",
        "State": "GA ",
        "Zip": "30736-8727"
    },
    {
        "_id": "634336fe70a5204f0004e8bf",
        "Entry Number": 88,
        "Address 1": "3149 Nursery Rd SE",
        "Address 2": "",
        "City": "Smyrna ",
        "State": "GA",
        "Zip": "30082-2136"
    },
    {
        "_id": "634336fe70a5204f0004e8c0",
        "Entry Number": 89,
        "Address 1": "41 Busch Dr NE",
        "Address 2": "",
        "City": "Cartersville ",
        "State": "GA",
        "Zip": "30121-7202"
    },
    {
        "_id": "634336fe70a5204f0004e8c1",
        "Entry Number": 90,
        "Address 1": "6019 Blue Springs Rd ",
        "Address 2": "",
        "City": "Cleveland",
        "State": "TN",
        "Zip": "37311-8881"
    },
    {
        "_id": "634336fe70a5204f0004e8c2",
        "Entry Number": 91,
        "Address 1": "3389 Busbee Dr NW",
        "Address 2": "",
        "City": "Kennesaw",
        "State": "GA",
        "Zip": "30144-0080"
    },
    {
        "_id": "634336fe70a5204f0004e8c3",
        "Entry Number": 92,
        "Address 1": "14200 Hwy 92",
        "Address 2": "",
        "City": "Woodstock",
        "State": "GA",
        "Zip": "30188-1293"
    },
    {
        "_id": "634336fe70a5204f0004e8c4",
        "Entry Number": 93,
        "Address 1": "2202 Riverstone Blvd",
        "Address 2": "",
        "City": "Canton",
        "State": "GA",
        "Zip": "30114-2938"
    },
    {
        "_id": "634336fe70a5204f0004e8c5",
        "Entry Number": 94,
        "Address 1": "1255 Roswell Rd",
        "Address 2": "",
        "City": "Marietta",
        "State": "GA",
        "Zip": "30062-0389"
    },
    {
        "_id": "634336fe70a5204f0004e8c6",
        "Entry Number": 95,
        "Address 1": "2720 Old Milton Pkwy",
        "Address 2": "",
        "City": "Alpharetta",
        "State": "GA",
        "Zip": "30009-3902"
    },
    {
        "_id": "634336fe70a5204f0004e8c7",
        "Entry Number": 96,
        "Address 1": "1808 Waters Edge Trail",
        "Address 2": "",
        "City": "Roswell",
        "State": "GA",
        "Zip": "30075-8203"
    },
    {
        "_id": "634336fe70a5204f0004e8c8",
        "Entry Number": 97,
        "Address 1": "1045 Azalea Cir NE",
        "Address 2": "",
        "City": "Marietta",
        "State": "GA",
        "Zip": "30062-7492"
    },
    {
        "_id": "634336fe70a5204f0004e8c9",
        "Entry Number": 98,
        "Address 1": "1005 Milstead Ave NE",
        "Address 2": "",
        "City": "Conyers",
        "State": "GA",
        "Zip": "30012-3742"
    },
    {
        "_id": "634336fe70a5204f0004e8ca",
        "Entry Number": 99,
        "Address 1": "220 Ponce De Leon Pl",
        "Address 2": "",
        "City": "Decatur",
        "State": "GA",
        "Zip": "30030-6435"
    },
    {
        "_id": "634336fe70a5204f0004e8cb",
        "Entry Number": 100,
        "Address 1": "1477 Virginia Ave",
        "Address 2": "",
        "City": "Atlanta",
        "State": "GA",
        "Zip": "30337-8563"
    },
    {
        "_id": "634336fe70a5204f0004e8cc",
        "Entry Number": 101,
        "Address 1": "721 Wedgewood Dr",
        "Address 2": "",
        "City": "Alpharetta",
        "State": "GA",
        "Zip": "30009-0541"
    },
    {
        "_id": "634336fe70a5204f0004e8cd",
        "Entry Number": 102,
        "Address 1": "10489 Nocturne Circle Blvd",
        "Address 2": "Apt 3630",
        "City": "Atlanta",
        "State": "GA",
        "Zip": "30456-8512"
    },
    {
        "_id": "634336fe70a5204f0004e8ce",
        "Entry Number": 103,
        "Address 1": "9042 High Spring St",
        "Address 2": "Apt 10",
        "City": "Athens",
        "State": "GA",
        "Zip": "30605-7877"
    },
    {
        "_id": "634336fe70a5204f0004e8cf",
        "Entry Number": 104,
        "Address 1": "3015 Windward Plaza",
        "Address 2": "Apt 987",
        "City": "Roswell",
        "State": "GA",
        "Zip": "30076-2102"
    },
    {
        "_id": "634336fe70a5204f0004e8d0",
        "Entry Number": 105,
        "Address 1": "79882 Coral St NW",
        "Address 2": "",
        "City": "Atlanta",
        "State": "GA",
        "Zip": "30255-5871"
    },
    {
        "_id": "634336fe70a5204f0004e8d1",
        "Entry Number": 106,
        "Address 1": "51 EAST PAULDING DR.",
        "Address 2": "",
        "City": "Dallas",
        "State": "GA",
        "Zip": "30157-7190"
    },
    {
        "_id": "634336fe70a5204f0004e8d2",
        "Entry Number": 107,
        "Address 1": "250 TED TURNER DR",
        "Address 2": "",
        "City": "Atlanta",
        "State": "GA",
        "Zip": "30303-0010"
    },
    {
        "_id": "634336fe70a5204f0004e8d3",
        "Entry Number": 108,
        "Address 1": "75 JOHN PORTMAN BLVD",
        "Address 2": "",
        "City": "Atlanta",
        "State": "GA",
        "Zip": "30303-0011"
    },
    {
        "_id": "634336fe70a5204f0004e8d4",
        "Entry Number": 109,
        "Address 1": "133 CARNEGIE WAY",
        "Address 2": "",
        "City": "Atlanta",
        "State": "GA",
        "Zip": "30303-1024"
    },
    {
        "_id": "634336fe70a5204f0004e8d5",
        "Entry Number": 110,
        "Address 1": "101 ANDREW YOUNG INTERNATIONAL BLVD",
        "Address 2": "",
        "City": "Atlanta",
        "State": "GA",
        "Zip": "30303-1030"
    }
]